{
  "norad_id": 63210,
  "name": "JINJUSAT-1B",
  "history": [
    {
      "epoch": "2026-03-28T21:14:01.432320",
      "apogee_km": 476.10545906069456,
      "perigee_km": 470.0804874222249,
      "latitude_deg": -35.46225542761148,
      "longitude_deg": -134.06507519981824,
      "semi_major_axis_km": 6851.229973241459,
      "eccentricity": 0.0004397,
      "inclination_deg": 97.4098,
      "raan_deg": 344.6462,
      "arg_perigee_deg": 39.5544,
      "mean_anomaly_deg": 320.6017,
      "mean_motion_rev_day": 15.30911
    },
    {
      "epoch": "2026-03-29T03:30:30.642336",
      "apogee_km": 476.0250485734232,
      "perigee_km": 470.0590418608481,
      "latitude_deg": 84.5851706069215,
      "longitude_deg": -108.96595296007581,
      "semi_major_axis_km": 6851.179045217135,
      "eccentricity": 0.0004354,
      "inclination_deg": 97.4098,
      "raan_deg": 344.9073,
      "arg_perigee_deg": 38.8694,
      "mean_anomaly_deg": 321.286,
      "mean_motion_rev_day": 15.3092807
    }
  ]
}